[
  {
    "OBJECT_NAME": "STARLINK-4162",
    "OBJECT_ID": "22086AY",
    "EPOCH": "2025-11-11T07:00:02.882592",
    "MEAN_MOTION": 15.08844472,
    "ECCENTRICITY": 0.0001435,
    "INCLINATION": 53.2199,
    "RA_OF_ASC_NODE": 355.6296,
    "ARG_OF_PERICENTER": 96.415,
    "MEAN_ANOMALY": 263.7006,
    "EPHEMERIS_TYPE": 0,
    "CLASSIFICATION_TYPE": "U",
    "NORAD_CAT_ID": 53288,
    "ELEMENT_SET_NO": 999,
    "REV_AT_EPOCH": 18331,
    "BSTAR": 4.2697e-05,
    "MEAN_MOTION_DOT": 3.92e-06,
    "MEAN_MOTION_DDOT": 0.0,
    "TLE_LINE1": "1 53288U 22086AY  25315.29170003  .00000392  00000+0  42697-4 0  9997",
    "TLE_LINE2": "2 53288  53.2199 355.6296 0001435  96.4150 263.7006 15.08844472183314",
    "COMMENT": "Grouped by shell and plane from TLE"
  },
  {
    "OBJECT_NAME": "STARLINK-4176",
    "OBJECT_ID": "22086AZ",
    "EPOCH": "2025-11-11T06:10:23.408832",
    "MEAN_MOTION": 15.08836338,
    "ECCENTRICITY": 0.0001334,
    "INCLINATION": 53.2175,
    "RA_OF_ASC_NODE": 350.9271,
    "ARG_OF_PERICENTER": 86.0291,
    "MEAN_ANOMALY": 274.0854,
    "EPHEMERIS_TYPE": 0,
    "CLASSIFICATION_TYPE": "U",
    "NORAD_CAT_ID": 53289,
    "ELEMENT_SET_NO": 999,
    "REV_AT_EPOCH": 18337,
    "BSTAR": 2.0891000000000004e-05,
    "MEAN_MOTION_DOT": 4.5e-07,
    "MEAN_MOTION_DDOT": 0.0,
    "TLE_LINE1": "1 53289U 22086AZ  25315.25721538  .00000045  00000+0  20891-4 0  9996",
    "TLE_LINE2": "2 53289  53.2175 350.9271 0001334  86.0291 274.0854 15.08836338183373",
    "COMMENT": "Grouped by shell and plane from TLE"
  },
  {
    "OBJECT_NAME": "STARLINK-4149",
    "OBJECT_ID": "22086BA",
    "EPOCH": "2025-11-11T06:49:27.181632",
    "MEAN_MOTION": 15.08837293,
    "ECCENTRICITY": 0.000138,
    "INCLINATION": 53.2195,
    "RA_OF_ASC_NODE": 355.6689,
    "ARG_OF_PERICENTER": 92.0242,
    "MEAN_ANOMALY": 268.0909,
    "EPHEMERIS_TYPE": 0,
    "CLASSIFICATION_TYPE": "U",
    "NORAD_CAT_ID": 53290,
    "ELEMENT_SET_NO": 999,
    "REV_AT_EPOCH": 18331,
    "BSTAR": 6.469200000000001e-05,
    "MEAN_MOTION_DOT": 7.42e-06,
    "MEAN_MOTION_DDOT": 0.0,
    "TLE_LINE1": "1 53290U 22086BA  25315.28434238  .00000742  00000+0  64692-4 0  9990",
    "TLE_LINE2": "2 53290  53.2195 355.6689 0001380  92.0242 268.0909 15.08837293183315",
    "COMMENT": "Grouped by shell and plane from TLE"
  },
  {
    "OBJECT_NAME": "STARLINK-4166",
    "OBJECT_ID": "22086BB",
    "EPOCH": "2025-11-11T06:58:01.101792",
    "MEAN_MOTION": 15.08845877,
    "ECCENTRICITY": 0.0001145,
    "INCLINATION": 53.2185,
    "RA_OF_ASC_NODE": 350.4255,
    "ARG_OF_PERICENTER": 87.8843,
    "MEAN_ANOMALY": 272.228,
    "EPHEMERIS_TYPE": 0,
    "CLASSIFICATION_TYPE": "U",
    "NORAD_CAT_ID": 53291,
    "ELEMENT_SET_NO": 999,
    "REV_AT_EPOCH": 18338,
    "BSTAR": 4.7962e-05,
    "MEAN_MOTION_DOT": 4.76e-06,
    "MEAN_MOTION_DDOT": 0.0,
    "TLE_LINE1": "1 53291U 22086BB  25315.29029053  .00000476  00000+0  47962-4 0  9992",
    "TLE_LINE2": "2 53291  53.2185 350.4255 0001145  87.8843 272.2280 15.08845877183388",
    "COMMENT": "Grouped by shell and plane from TLE"
  },
  {
    "OBJECT_NAME": "STARLINK-4159",
    "OBJECT_ID": "22086BC",
    "EPOCH": "2025-11-11T07:05:22.998912",
    "MEAN_MOTION": 15.08831878,
    "ECCENTRICITY": 0.0001236,
    "INCLINATION": 53.2186,
    "RA_OF_ASC_NODE": 355.797,
    "ARG_OF_PERICENTER": 77.8178,
    "MEAN_ANOMALY": 282.2952,
    "EPHEMERIS_TYPE": 0,
    "CLASSIFICATION_TYPE": "U",
    "NORAD_CAT_ID": 53292,
    "ELEMENT_SET_NO": 999,
    "REV_AT_EPOCH": 18331,
    "BSTAR": 0.0,
    "MEAN_MOTION_DOT": -1.367e-05,
    "MEAN_MOTION_DDOT": 0.0,
    "TLE_LINE1": "1 53292U 22086BC  25315.29540508 -.00001367  00000+0 -67860-4 0  9997",
    "TLE_LINE2": "2 53292  53.2186 355.7970 0001236  77.8178 282.2952 15.08831878183319",
    "COMMENT": "Grouped by shell and plane from TLE"
  },
  {
    "OBJECT_NAME": "STARLINK-6207",
    "OBJECT_ID": "23083AA",
    "EPOCH": "2025-11-11T02:06:35.765280",
    "MEAN_MOTION": 15.02514511,
    "ECCENTRICITY": 0.0001295,
    "INCLINATION": 43.0088,
    "RA_OF_ASC_NODE": 353.7425,
    "ARG_OF_PERICENTER": 270.9225,
    "MEAN_ANOMALY": 89.1469,
    "EPHEMERIS_TYPE": 0,
    "CLASSIFICATION_TYPE": "U",
    "NORAD_CAT_ID": 56900,
    "ELEMENT_SET_NO": 999,
    "REV_AT_EPOCH": 13394,
    "BSTAR": 5.2773000000000004e-05,
    "MEAN_MOTION_DOT": 5.09e-06,
    "MEAN_MOTION_DDOT": 0.0,
    "TLE_LINE1": "1 56900U 23083AA  25315.08791395  .00000509  00000+0  52773-4 0  9995",
    "TLE_LINE2": "2 56900  43.0088 353.7425 0001295 270.9225  89.1469 15.02514511133940",
    "COMMENT": "Grouped by shell and plane from TLE"
  },
  {
    "OBJECT_NAME": "STARLINK-6195",
    "OBJECT_ID": "23083AC",
    "EPOCH": "2025-11-11T03:37:29.981280",
    "MEAN_MOTION": 15.02534246,
    "ECCENTRICITY": 0.0001163,
    "INCLINATION": 43.0049,
    "RA_OF_ASC_NODE": 353.3545,
    "ARG_OF_PERICENTER": 273.2352,
    "MEAN_ANOMALY": 86.8357,
    "EPHEMERIS_TYPE": 0,
    "CLASSIFICATION_TYPE": "U",
    "NORAD_CAT_ID": 56902,
    "ELEMENT_SET_NO": 999,
    "REV_AT_EPOCH": 13409,
    "BSTAR": 7.7478e-05,
    "MEAN_MOTION_DOT": 8.43e-06,
    "MEAN_MOTION_DDOT": 0.0,
    "TLE_LINE1": "1 56902U 23083AC  25315.15104145  .00000843  00000+0  77478-4 0  9996",
    "TLE_LINE2": "2 56902  43.0049 353.3545 0001163 273.2352  86.8357 15.02534246134093",
    "COMMENT": "Grouped by shell and plane from TLE"
  },
  {
    "OBJECT_NAME": "STARLINK-6193",
    "OBJECT_ID": "23083AE",
    "EPOCH": "2025-11-11T03:03:56.176128",
    "MEAN_MOTION": 15.02542623,
    "ECCENTRICITY": 0.000129,
    "INCLINATION": 43.0055,
    "RA_OF_ASC_NODE": 353.1761,
    "ARG_OF_PERICENTER": 269.9172,
    "MEAN_ANOMALY": 90.1522,
    "EPHEMERIS_TYPE": 0,
    "CLASSIFICATION_TYPE": "U",
    "NORAD_CAT_ID": 56904,
    "ELEMENT_SET_NO": 999,
    "REV_AT_EPOCH": 13398,
    "BSTAR": 5.9419e-05,
    "MEAN_MOTION_DOT": 5.99e-06,
    "MEAN_MOTION_DDOT": 0.0,
    "TLE_LINE1": "1 56904U 23083AE  25315.12773352  .00000599  00000+0  59419-4 0  9990",
    "TLE_LINE2": "2 56904  43.0055 353.1761 0001290 269.9172  90.1522 15.02542623133980",
    "COMMENT": "Grouped by shell and plane from TLE"
  },
  {
    "OBJECT_NAME": "STARLINK-6183",
    "OBJECT_ID": "23083AF",
    "EPOCH": "2025-11-11T03:32:42.646848",
    "MEAN_MOTION": 15.0254019,
    "ECCENTRICITY": 0.0001135,
    "INCLINATION": 43.0025,
    "RA_OF_ASC_NODE": 353.3305,
    "ARG_OF_PERICENTER": 267.6075,
    "MEAN_ANOMALY": 92.4637,
    "EPHEMERIS_TYPE": 0,
    "CLASSIFICATION_TYPE": "U",
    "NORAD_CAT_ID": 56905,
    "ELEMENT_SET_NO": 999,
    "REV_AT_EPOCH": 13398,
    "BSTAR": 0.00017016,
    "MEAN_MOTION_DOT": 2.096e-05,
    "MEAN_MOTION_DDOT": 0.0,
    "TLE_LINE1": "1 56905U 23083AF  25315.14771582  .00002096  00000+0  17016-3 0  9996",
    "TLE_LINE2": "2 56905  43.0025 353.3305 0001135 267.6075  92.4637 15.02540190133988",
    "COMMENT": "Grouped by shell and plane from TLE"
  },
  {
    "OBJECT_NAME": "STARLINK-6098",
    "OBJECT_ID": "23083AG",
    "EPOCH": "2025-11-11T01:52:10.687872",
    "MEAN_MOTION": 15.02542715,
    "ECCENTRICITY": 0.0001365,
    "INCLINATION": 43.0054,
    "RA_OF_ASC_NODE": 353.664,
    "ARG_OF_PERICENTER": 262.9388,
    "MEAN_ANOMALY": 97.1299,
    "EPHEMERIS_TYPE": 0,
    "CLASSIFICATION_TYPE": "U",
    "NORAD_CAT_ID": 56906,
    "ELEMENT_SET_NO": 999,
    "REV_AT_EPOCH": 13397,
    "BSTAR": 0.00013299,
    "MEAN_MOTION_DOT": 1.594e-05,
    "MEAN_MOTION_DDOT": 0.0,
    "TLE_LINE1": "1 56906U 23083AG  25315.07790148  .00001594  00000+0  13299-3 0  9999",
    "TLE_LINE2": "2 56906  43.0054 353.6640 0001365 262.9388  97.1299 15.02542715133976",
    "COMMENT": "Grouped by shell and plane from TLE"
  },
  {
    "OBJECT_NAME": "STARLINK-6110",
    "OBJECT_ID": "23083AH",
    "EPOCH": "2025-11-10T11:32:14.004096",
    "MEAN_MOTION": 15.02541612,
    "ECCENTRICITY": 0.0001247,
    "INCLINATION": 43.0046,
    "RA_OF_ASC_NODE": 356.9255,
    "ARG_OF_PERICENTER": 265.9277,
    "MEAN_ANOMALY": 94.1423,
    "EPHEMERIS_TYPE": 0,
    "CLASSIFICATION_TYPE": "U",
    "NORAD_CAT_ID": 56907,
    "ELEMENT_SET_NO": 999,
    "REV_AT_EPOCH": 13399,
    "BSTAR": 7.538500000000001e-05,
    "MEAN_MOTION_DOT": 8.15e-06,
    "MEAN_MOTION_DDOT": 0.0,
    "TLE_LINE1": "1 56907U 23083AH  25314.48071764  .00000815  00000+0  75385-4 0  9990",
    "TLE_LINE2": "2 56907  43.0046 356.9255 0001247 265.9277  94.1423 15.02541612133998",
    "COMMENT": "Grouped by shell and plane from TLE"
  },
  {
    "OBJECT_NAME": "STARLINK-6186",
    "OBJECT_ID": "23083AJ",
    "EPOCH": "2025-11-11T03:13:32.336256",
    "MEAN_MOTION": 15.02536588,
    "ECCENTRICITY": 0.0001388,
    "INCLINATION": 43.0058,
    "RA_OF_ASC_NODE": 353.228,
    "ARG_OF_PERICENTER": 269.6181,
    "MEAN_ANOMALY": 90.4502,
    "EPHEMERIS_TYPE": 0,
    "CLASSIFICATION_TYPE": "U",
    "NORAD_CAT_ID": 56908,
    "ELEMENT_SET_NO": 999,
    "REV_AT_EPOCH": 13398,
    "BSTAR": 0.00014398,
    "MEAN_MOTION_DOT": 1.742e-05,
    "MEAN_MOTION_DDOT": 0.0,
    "TLE_LINE1": "1 56908U 23083AJ  25315.13440204  .00001742  00000+0  14398-3 0  9999",
    "TLE_LINE2": "2 56908  43.0058 353.2280 0001388 269.6181  90.4502 15.02536588133983",
    "COMMENT": "Grouped by shell and plane from TLE"
  },
  {
    "OBJECT_NAME": "STARLINK-5999",
    "OBJECT_ID": "23083AK",
    "EPOCH": "2025-11-11T03:34:18.764256",
    "MEAN_MOTION": 15.02533353,
    "ECCENTRICITY": 0.0001261,
    "INCLINATION": 43.0058,
    "RA_OF_ASC_NODE": 353.3355,
    "ARG_OF_PERICENTER": 266.9286,
    "MEAN_ANOMALY": 93.1413,
    "EPHEMERIS_TYPE": 0,
    "CLASSIFICATION_TYPE": "U",
    "NORAD_CAT_ID": 56909,
    "ELEMENT_SET_NO": 999,
    "REV_AT_EPOCH": 13409,
    "BSTAR": 2.0447000000000003e-05,
    "MEAN_MOTION_DOT": 7.3e-07,
    "MEAN_MOTION_DDOT": 0.0,
    "TLE_LINE1": "1 56909U 23083AK  25315.14882829  .00000073  00000+0  20447-4 0  9993",
    "TLE_LINE2": "2 56909  43.0058 353.3355 0001261 266.9286  93.1413 15.02533353134095",
    "COMMENT": "Grouped by shell and plane from TLE"
  }
]